[{"OBJECT_NAME":"STARLINK-5943","OBJECT_ID":"2023-042AG","EPOCH":"2026-03-09T22:08:30.055776","MEAN_MOTION":15.03751698,"ECCENTRICITY":0.00027859,"INCLINATION":43.0084,"RA_OF_ASC_NODE":41.9837,"ARG_OF_PERICENTER":279.9866,"MEAN_ANOMALY":80.0663,"EPHEMERIS_TYPE":0,"CLASSIFICATION_TYPE":"U","NORAD_CAT_ID":56016,"ELEMENT_SET_NO":999,"REV_AT_EPOCH":16309,"BSTAR":0.0075988844,"MEAN_MOTION_DOT":0.00107456,"MEAN_MOTION_DDOT":0},{"OBJECT_NAME":"IRIDIUM 33 DEB","OBJECT_ID":"1997-051ACD","EPOCH":"2026-02-15T04:06:14.442336","MEAN_MOTION":15.0282309,"ECCENTRICITY":0.00183243,"INCLINATION":86.3384,"RA_OF_ASC_NODE":302.6959,"ARG_OF_PERICENTER":121.5358,"MEAN_ANOMALY":29.3036,"EPHEMERIS_TYPE":0,"CLASSIFICATION_TYPE":"U","NORAD_CAT_ID":46971,"ELEMENT_SET_NO":999,"REV_AT_EPOCH":65196,"BSTAR":0.0024316654,"MEAN_MOTION_DOT":0.00032805,"MEAN_MOTION_DDOT":0}]
